[{"OBJECT_NAME":"STARLINK-2459","OBJECT_ID":"2021-027AD","EPOCH":"2026-03-10T00:00:02.999808","MEAN_MOTION":15.09710709,"ECCENTRICITY":8.157e-5,"INCLINATION":53.0617,"RA_OF_ASC_NODE":150.2046,"ARG_OF_PERICENTER":73.0767,"MEAN_ANOMALY":312.5098,"EPHEMERIS_TYPE":0,"CLASSIFICATION_TYPE":"U","NORAD_CAT_ID":48119,"ELEMENT_SET_NO":999,"REV_AT_EPOCH":559,"BSTAR":0.0049045756,"MEAN_MOTION_DOT":0.00080573,"MEAN_MOTION_DDOT":0},{"OBJECT_NAME":"OBJECT R","OBJECT_ID":"2021-022R","EPOCH":"2026-03-09T22:54:37.456416","MEAN_MOTION":15.08912229,"ECCENTRICITY":0.00182027,"INCLINATION":97.3728,"RA_OF_ASC_NODE":308.5333,"ARG_OF_PERICENTER":149.1845,"MEAN_ANOMALY":211.0456,"EPHEMERIS_TYPE":0,"CLASSIFICATION_TYPE":"U","NORAD_CAT_ID":47947,"ELEMENT_SET_NO":999,"REV_AT_EPOCH":27304,"BSTAR":2.1057411e-5,"MEAN_MOTION_DOT":2.72e-6,"MEAN_MOTION_DDOT":0}]
